{
  "type": "FeatureCollection",
  "features": [
    {
      "type": "Feature",
      "properties": {
        "norad_id": 66960,
        "name": "STARLINK-35879",
        "group": "last-30-days",
        "lat": -40.32584975403357,
        "lon": 55.62351015086426,
        "alt_km": 325.5029673100262,
        "timestamp": "2025-12-20T05:41:48.744682+00:00",
        "meta_object_name": "STARLINK-35879",
        "meta_object_id": "2025-288B",
        "meta_epoch": "2025-12-19T19:23:49.280928",
        "meta_mean_motion": 15.82959761,
        "meta_eccentricity": 0.00016863,
        "meta_inclination": 43.0016,
        "meta_ra_of_asc_node": 123.8855,
        "meta_arg_of_pericenter": 267.5526,
        "meta_mean_anomaly": 92.5153,
        "meta_ephemeris_type": 0,
        "meta_classification_type": "U",
        "meta_norad_cat_id": 66960,
        "meta_element_set_no": 999,
        "meta_rev_at_epoch": 296,
        "meta_bstar": -0.0024691743,
        "meta_mean_motion_dot": -0.00513213,
        "meta_mean_motion_ddot": 0,
        "tle_line1": "1 66960U 25288B   25353.80820927 -.00513213  00000+0 -24692-2 0  9997",
        "tle_line2": "2 66960  43.0016 123.8855 0001686 267.5526  92.5153 15.82959761  2964"
      },
      "geometry": {
        "type": "Point",
        "coordinates": [
          55.62351015086426,
          -40.32584975403357
        ]
      }
    },
    {
      "type": "Feature",
      "properties": {
        "norad_id": 66961,
        "name": "STARLINK-35761",
        "group": "last-30-days",
        "lat": -39.608403497793304,
        "lon": 58.61978616903592,
        "alt_km": 324.5396081905046,
        "timestamp": "2025-12-20T05:41:48.744692+00:00",
        "meta_object_name": "STARLINK-35761",
        "meta_object_id": "2025-288C",
        "meta_epoch": "2025-12-19T17:52:25.467744",
        "meta_mean_motion": 15.83164451,
        "meta_eccentricity": 0.00022323,
        "meta_inclination": 43.001,
        "meta_ra_of_asc_node": 124.2706,
        "meta_arg_of_pericenter": 287.5809,
        "meta_mean_anomaly": 72.4819,
        "meta_ephemeris_type": 0,
        "meta_classification_type": "U",
        "meta_norad_cat_id": 66961,
        "meta_element_set_no": 999,
        "meta_rev_at_epoch": 295,
        "meta_bstar": -0.0022633291,
        "meta_mean_motion_dot": -0.00477103,
        "meta_mean_motion_ddot": 0,
        "tle_line1": "1 66961U 25288C   25353.74473921 -.00477103  00000+0 -22633-2 0  9999",
        "tle_line2": "2 66961  43.0010 124.2706 0002232 287.5809  72.4819 15.83164451  2953"
      },
      "geometry": {
        "type": "Point",
        "coordinates": [
          58.61978616903592,
          -39.608403497793304
        ]
      }
    },
    {
      "type": "Feature",
      "properties": {
        "norad_id": 66962,
        "name": "STARLINK-35874",
        "group": "last-30-days",
        "lat": -38.1519788115207,
        "lon": 63.775722667902,
        "alt_km": 321.76981399336364,
        "timestamp": "2025-12-20T05:41:48.744704+00:00",
        "meta_object_name": "STARLINK-35874",
        "meta_object_id": "2025-288D",
        "meta_epoch": "2025-12-19T16:20:51.302112",
        "meta_mean_motion": 15.83646759,
        "meta_eccentricity": 0.0002308,
        "meta_inclination": 43.001,
        "meta_ra_of_asc_node": 124.6533,
        "meta_arg_of_pericenter": 276.8688,
        "meta_mean_anomaly": 83.1922,
        "meta_ephemeris_type": 0,
        "meta_classification_type": "U",
        "meta_norad_cat_id": 66962,
        "meta_element_set_no": 999,
        "meta_rev_at_epoch": 294,
        "meta_bstar": 1.1238e-05,
        "meta_mean_motion_dot": 2.007e-05,
        "meta_mean_motion_ddot": 0,
        "tle_line1": "1 66962U 25288D   25353.68114933  .00002007  00000+0  11238-4 0  9994",
        "tle_line2": "2 66962  43.0010 124.6533 0002308 276.8688  83.1922 15.83646759  2945"
      },
      "geometry": {
        "type": "Point",
        "coordinates": [
          63.775722667902,
          -38.1519788115207
        ]
      }
    },
    {
      "type": "Feature",
      "properties": {
        "norad_id": 66963,
        "name": "STARLINK-36133",
        "group": "last-30-days",
        "lat": -38.131855997260836,
        "lon": 63.83900747304361,
        "alt_km": 325.5491551945388,
        "timestamp": "2025-12-20T05:41:48.744715+00:00",
        "meta_object_name": "STARLINK-36133",
        "meta_object_id": "2025-288E",
        "meta_epoch": "2025-12-19T19:22:06.644640",
        "meta_mean_motion": 15.8293546,
        "meta_eccentricity": 0.00015816,
        "meta_inclination": 43.0006,
        "meta_ra_of_asc_node": 123.8757,
        "meta_arg_of_pericenter": 318.4025,
        "meta_mean_anomaly": 41.6727,
        "meta_ephemeris_type": 0,
        "meta_classification_type": "U",
        "meta_norad_cat_id": 66963,
        "meta_element_set_no": 999,
        "meta_rev_at_epoch": 296,
        "meta_bstar": -0.0023284359,
        "meta_mean_motion_dot": -0.00484968,
        "meta_mean_motion_ddot": 0,
        "tle_line1": "1 66963U 25288E   25353.80702135 -.00484968  00000+0 -23284-2 0  9990",
        "tle_line2": "2 66963  43.0006 123.8757 0001581 318.4025  41.6727 15.82935460  2963"
      },
      "geometry": {
        "type": "Point",
        "coordinates": [
          63.83900747304361,
          -38.131855997260836
        ]
      }
    },
    {
      "type": "Feature",
      "properties": {
        "norad_id": 66964,
        "name": "STARLINK-36104",
        "group": "last-30-days",
        "lat": -37.18978842627743,
        "lon": 66.71671852186962,
        "alt_km": 324.48551581018364,
        "timestamp": "2025-12-20T05:41:48.744725+00:00",
        "meta_object_name": "STARLINK-36104",
        "meta_object_id": "2025-288F",
        "meta_epoch": "2025-12-19T17:50:40.690464",
        "meta_mean_motion": 15.8312681,
        "meta_eccentricity": 0.00025105,
        "meta_inclination": 43.001,
        "meta_ra_of_asc_node": 124.2607,
        "meta_arg_of_pericenter": 286.5785,
        "meta_mean_anomaly": 73.4811,
        "meta_ephemeris_type": 0,
        "meta_classification_type": "U",
        "meta_norad_cat_id": 66964,
        "meta_element_set_no": 999,
        "meta_rev_at_epoch": 295,
        "meta_bstar": -0.0024837553,
        "meta_mean_motion_dot": -0.00520102,
        "meta_mean_motion_ddot": 0,
        "tle_line1": "1 66964U 25288F   25353.74352651 -.00520102  00000+0 -24838-2 0  9995",
        "tle_line2": "2 66964  43.0010 124.2607 0002510 286.5785  73.4811 15.83126810  2957"
      },
      "geometry": {
        "type": "Point",
        "coordinates": [
          66.71671852186962,
          -37.18978842627743
        ]
      }
    },
    {
      "type": "Feature",
      "properties": {
        "norad_id": 66965,
        "name": "STARLINK-36067",
        "group": "last-30-days",
        "lat": -36.23889466549418,
        "lon": 69.36047767764967,
        "alt_km": 324.18587031149946,
        "timestamp": "2025-12-20T05:41:48.744735+00:00",
        "meta_object_name": "STARLINK-36067",
        "meta_object_id": "2025-288G",
        "meta_epoch": "2025-12-19T17:50:08.356992",
        "meta_mean_motion": 15.8317375,
        "meta_eccentricity": 0.00021771,
        "meta_inclination": 43.0006,
        "meta_ra_of_asc_node": 124.2578,
        "meta_arg_of_pericenter": 299.0175,
        "meta_mean_anomaly": 61.0479,
        "meta_ephemeris_type": 0,
        "meta_classification_type": "U",
        "meta_norad_cat_id": 66965,
        "meta_element_set_no": 999,
        "meta_rev_at_epoch": 295,
        "meta_bstar": -0.0019030431,
        "meta_mean_motion_dot": -0.00404706,
        "meta_mean_motion_ddot": 0,
        "tle_line1": "1 66965U 25288G   25353.74315228 -.00404706  00000+0 -19030-2 0  9994",
        "tle_line2": "2 66965  43.0006 124.2578 0002177 299.0175  61.0479 15.83173750  2959"
      },
      "geometry": {
        "type": "Point",
        "coordinates": [
          69.36047767764967,
          -36.23889466549418
        ]
      }
    },
    {
      "type": "Feature",
      "properties": {
        "norad_id": 66966,
        "name": "STARLINK-36139",
        "group": "last-30-days",
        "lat": -35.19541807845051,
        "lon": 72.02810942937474,
        "alt_km": 323.591962632725,
        "timestamp": "2025-12-20T05:41:48.744748+00:00",
        "meta_object_name": "STARLINK-36139",
        "meta_object_id": "2025-288H",
        "meta_epoch": "2025-12-19T19:20:22.308000",
        "meta_mean_motion": 15.8303718,
        "meta_eccentricity": 0.00028102,
        "meta_inclination": 43.0012,
        "meta_ra_of_asc_node": 123.8666,
        "meta_arg_of_pericenter": 313.1242,
        "meta_mean_anomaly": 46.9395,
        "meta_ephemeris_type": 0,
        "meta_classification_type": "U",
        "meta_norad_cat_id": 66966,
        "meta_element_set_no": 999,
        "meta_rev_at_epoch": 296,
        "meta_bstar": -0.0011013744,
        "meta_mean_motion_dot": -0.00237426,
        "meta_mean_motion_ddot": 0,
        "tle_line1": "1 66966U 25288H   25353.80581375 -.00237426  00000+0 -11014-2 0  9997",
        "tle_line2": "2 66966  43.0012 123.8666 0002810 313.1242  46.9395 15.83037180  2963"
      },
      "geometry": {
        "type": "Point",
        "coordinates": [
          72.02810942937474,
          -35.19541807845051
        ]
      }
    }
  ]
}